NORAD_CAT_ID,OBJECT_NAME,OBJECT_TYPE,EPOCH,MEAN_MOTION,ECCENTRICITY,INCLINATION,RA_OF_ASC_NODE,ARG_OF_PERICENTER,MEAN_ANOMALY,BSTAR,MEAN_MOTION_DOT,MEAN_MOTION_DDOT,TLE_LINE0,TLE_LINE1,TLE_LINE2,SEMIMAJOR_AXIS,PERIOD,APOGEE,PERIGEE,DECAYED
51116.0,STARLINK-3243,PAYLOAD,2022-02-15 06:00:00,15.73223439,0.0002327,53.2169,139.8589,21.9048,200.1348,-0.00018441,-0.0002645,0.0,0 STARLINK-3243,1 51116U 22005N   22046.25001157 -.00026450  00000-0 -18441-3 0  9998,2 51116  53.2169 139.8589 0002327  21.9048 200.1348 15.73223439  5601,6727.828,91.532,351.259,348.12800000000016,0.0
51116.0,STARLINK-3243,PAYLOAD,2022-02-15 14:00:01,15.73164322,0.0002634,53.217,138.2116,17.5742,293.4245,0.0001188,0.0001606,0.0,0 STARLINK-3243,1 51116U 22005N   22046.58334491  .00016060  00000-0  11880-3 0  9998,2 51116  53.2170 138.2116 0002634  17.5742 293.4245 15.73164322  3687,6727.996999999999,91.535,351.634,348.09,0.0
51116.0,STARLINK-3243,PAYLOAD,2022-02-15 22:00:01,15.7321709,0.0002631999999999,53.217,136.5612,16.3203,23.6281,-0.00038714,-0.00054653,0.0,0 STARLINK-3243,1 51116U 22005N   22046.91668981 -.00054653  00000-0 -38714-3 0  9996,2 51116  53.2170 136.5612 0002632  16.3203  23.6281 15.73217090  3703,6727.846,91.532,351.482,347.941,0.0
51116.0,STARLINK-3243,PAYLOAD,2022-02-16 14:00:01,15.73163301,0.0002927,53.2168,133.2638,22.7681,194.948,0.00032995,0.00045872,0.0,0 STARLINK-3243,1 51116U 22005N   22047.58334491  .00045872  00000-0  32995-3 0  9992,2 51116  53.2168 133.2638 0002927  22.7681 194.9480 15.73163301  5812,6728.0,91.535,351.834,347.896,0.0
51116.0,STARLINK-3243,PAYLOAD,2022-02-16 22:00:00,15.73220832,0.0002795,53.2162,131.613,23.1727,283.4554,4.438e-05,5.616e-05,0.0,0 STARLINK-3243,1 51116U 22005N   22047.91667824  .00005616  00000-0  44380-4 0  9992,2 51116  53.2162 131.6130 0002795  23.1727 283.4554 15.73220832  3686,6727.8359999999975,91.532,351.581,347.82,0.0
51116.0,STARLINK-3243,PAYLOAD,2022-02-17 14:00:01,15.73185518,0.0002918,53.2165,128.3152,19.1838,105.3729,0.00046719,0.00065427,0.0,0 STARLINK-3243,1 51116U 22005N   22048.58334491  .00065427  00000-0  46719-3 0  9990,2 51116  53.2165 128.3152 0002918  19.1838 105.3729 15.73185518  5961,6727.936,91.534,351.765,347.838,0.0
51116.0,STARLINK-3243,PAYLOAD,2022-02-17 22:00:00,15.73275073,0.0002809,53.2164,126.6644,18.5123,194.9744,-0.0006207999999999,-0.0008715,0.0,0 STARLINK-3243,1 51116U 22005N   22048.91667824 -.00087150  00000-0 -62080-3 0  9994,2 51116  53.2164 126.6644 0002809  18.5123 194.9744 15.73275073  3703,6727.681,91.529,351.436,347.656,0.0
51116.0,STARLINK-3243,PAYLOAD,2022-02-18 04:00:00,15.73217102,0.0002728,53.2163,125.4263,20.354,169.8673,-0.00035614,-0.00050353,0.0,0 STARLINK-3243,1 51116U 22005N   22049.16667824 -.00050353  00000-0 -35614-3 0  9990,2 51116  53.2163 125.4263 0002728  20.3540 169.8673 15.73217102  6063,6727.846,91.532,351.547,347.876,0.0
51116.0,STARLINK-3243,PAYLOAD,2022-02-18 14:00:01,15.73126412,0.0003115,53.216,123.3668,22.4907,8.8929,0.00040926,0.00057036,0.0,0 STARLINK-3243,1 51116U 22005N   22049.58334491  .00057036  00000-0  40926-3 0  9992,2 51116  53.2160 123.3668 0003115  22.4907   8.8929 15.73126412  3715,6728.105,91.537,352.066,347.874,0.0
51116.0,STARLINK-3243,PAYLOAD,2022-02-18 20:00:01,15.73180363,0.0003051,53.2153,122.1288,22.5595,345.4704,5.359e-06,1.29e-06,0.0,0 STARLINK-3243,1 51116U 22005N   22049.83334491  .00000129  00000-0  53590-5 0  9994,2 51116  53.2153 122.1288 0003051  22.5595 345.4704 15.73180363  6163,6727.951,91.534,351.869,347.76300000000015,0.0
51116.0,STARLINK-3243,PAYLOAD,2022-02-19 04:00:00,15.73182333,0.0002885,53.2155,120.4778,26.2347,70.7033,0.00045007,0.00062979,0.0,0 STARLINK-3243,1 51116U 22005N   22050.16667824  .00062979  00000-0  45007-3 0  9994,2 51116  53.2155 120.4778 0002885  26.2347  70.7033 15.73182333  6218,6727.946,91.534,351.75199999999984,347.87,0.0
51116.0,STARLINK-3243,PAYLOAD,2022-02-19 14:00:01,15.73212581,0.0003242,53.2156,118.4182,24.2777,273.8466,0.00057389,0.00080758,0.0,0 STARLINK-3243,1 51116U 22005N   22050.58334491  .00080758  00000-0  57389-3 0  9992,2 51116  53.2156 118.4182 0003242  24.2777 273.8466 15.73212581  3670,6727.859,91.532,351.905,347.543,0.0
51116.0,STARLINK-3243,PAYLOAD,2022-02-19 20:00:01,15.73298865,0.000309,53.2155,117.1798,22.5857,252.2562,-0.00042946,-0.00060734,0.0,0 STARLINK-3243,1 51116U 22005N   22050.83334491 -.00060734  00000-0 -42946-3 0  9997,2 51116  53.2155 117.1798 0003090  22.5857 252.2562 15.73298865  6321,6727.613,91.527,351.557,347.399,0.0
51116.0,STARLINK-3243,PAYLOAD,2022-02-20 14:00:01,15.73204848,0.0003178,53.2151,113.4691,17.0244,188.0383,-5.3052e-06,-1.368e-05,0.0,0 STARLINK-3243,1 51116U 22005N   22051.58334491 -.00001368  00000-0 -53052-5 0  9990,2 51116  53.2151 113.4691 0003178  17.0244 188.0383 15.73204848  3663,6727.880999999999,91.533,351.884,347.608,0.0
51116.0,STARLINK-3243,PAYLOAD,2022-02-20 22:00:00,15.73160597,0.0002955,53.2148,111.8177,16.7683,277.2332,0.0002179,0.00030022,0.0,0 STARLINK-3243,1 51116U 22005N   22051.91667824  .00030022  00000-0  21790-3 0  9995,2 51116  53.2148 111.8177 0002955  16.7683 277.2332 15.73160597  6496,6728.0080000000025,91.535,351.861,347.884,0.0
51116.0,STARLINK-3243,PAYLOAD,2022-02-21 14:00:01,15.73124626,0.0003288,53.2151,108.5205,20.6441,91.1596,0.00062832,0.00088222,0.0,0 STARLINK-3243,1 51116U 22005N   22052.58334491  .00088222  00000-0  62832-3 0  9997,2 51116  53.2151 108.5205 0003288  20.6441  91.1596 15.73124626  6590,6728.11,91.538,352.18699999999984,347.76300000000015,0.0
51116.0,STARLINK-3243,PAYLOAD,2022-02-21 22:00:00,15.73172588,0.0003167,53.2154,106.8689,22.1138,178.5699,0.00032735,0.00045524,0.0,0 STARLINK-3243,1 51116U 22005N   22052.91667824  .00045524  00000-0  32735-3 0  9990,2 51116  53.2154 106.8689 0003167  22.1138 178.5699 15.73172588  3665,6727.973000000001,91.535,351.969,347.708,0.0
51116.0,STARLINK-3243,PAYLOAD,2022-02-22 04:00:00,15.73204732,0.0003145,53.2154,105.6315,25.2786,152.0827,0.00031313,0.0004357,0.0,0 STARLINK-3243,1 51116U 22005N   22053.16667824  .00043570  00000-0  31313-3 0  9998,2 51116  53.2154 105.6315 0003145  25.2786 152.0827 15.73204732  6689,6727.882,91.533,351.86300000000006,347.631,0.0
51116.0,STARLINK-3243,PAYLOAD,2022-02-22 14:00:01,15.73234132,0.0003457,53.2149,103.5718,22.4896,356.0643,0.00010298,0.00013878,0.0,0 STARLINK-3243,1 51116U 22005N   22053.58334491  .00013878  00000-0  10298-3 0  9992,2 51116  53.2149 103.5718 0003457  22.4896 356.0643 15.73234132  3680,6727.7980000000025,91.531,351.98900000000015,347.337,0.0
51116.0,STARLINK-3243,PAYLOAD,2022-02-22 22:00:00,15.73200595,0.0003087,53.2148,101.9201,21.5949,85.9587,0.00033348,0.00046449,0.0,0 STARLINK-3243,1 51116U 22005N   22053.91667824  .00046449  00000-0  33348-3 0  9999,2 51116  53.2148 101.9201 0003087  21.5949  85.9587 15.73200595  6804,6727.893,91.533,351.835,347.682,0.0
51116.0,STARLINK-3243,PAYLOAD,2022-02-23 14:00:01,15.7319949,0.0003207,53.2154,98.6229,12.3864,273.0913,-0.00012677,-0.0001838,0.0,0 STARLINK-3243,1 51116U 22005N   22054.58334491 -.00018380  00000-0 -12677-3 0  9991,2 51116  53.2154  98.6229 0003207  12.3864 273.0913 15.73199490  6917,6727.897,91.533,351.9190000000001,347.60400000000016,0.0
51116.0,STARLINK-3243,PAYLOAD,2022-02-23 22:00:00,15.73192134,0.0002981,53.2156,96.9713,10.5929,3.8117,-0.00025376,-0.0003608,0.0,0 STARLINK-3243,1 51116U 22005N   22054.91667824 -.00036080  00000-0 -25376-3 0  9994,2 51116  53.2156  96.9713 0002981  10.5929   3.8117 15.73192134  3716,6727.918000000002,91.534,351.788,347.777,0.0
51116.0,STARLINK-3243,PAYLOAD,2022-02-24 14:00:01,15.73184726,0.0003276,53.2152,93.6743,10.8037,181.4765,0.00022458,0.00030999,0.0,0 STARLINK-3243,1 51116U 22005N   22055.58334491  .00030999  00000-0  22458-3 0  9998,2 51116  53.2152  93.6743 0003276  10.8037 181.4765 15.73184726  3686,6727.939,91.534,352.0080000000001,347.6,0.0
51116.0,STARLINK-3243,PAYLOAD,2022-02-24 22:00:00,15.7316579,0.0002995,53.2153,92.0227,9.1129,272.1043,6.3928e-05,8.347e-05,0.0,0 STARLINK-3243,1 51116U 22005N   22055.91667824  .00008347  00000-0  63928-4 0  9994,2 51116  53.2153  92.0227 0002995   9.1129 272.1043 15.73165790  3673,6727.993,91.535,351.87300000000016,347.843,0.0
51116.0,STARLINK-3243,PAYLOAD,2022-02-25 00:00:00,15.7313485,0.0002926,53.2152,91.61,9.1033,24.3488,0.00051206,0.00071668,0.0,0 STARLINK-3243,1 51116U 22005N   22056.00001157  .00071668  00000-0  51206-3 0  9997,2 51116  53.2152  91.6100 0002926   9.1033  24.3488 15.73134850  7133,6728.081,91.537,351.915,347.977,0.0
51116.0,STARLINK-3243,PAYLOAD,2022-02-25 14:00:01,15.73173998,0.0003279,53.2156,88.7259,5.9624,93.0521,-3.8837e-05,-6.065e-05,0.0,0 STARLINK-3243,1 51116U 22005N   22056.58334491 -.00006065  00000-0 -38837-4 0  9997,2 51116  53.2156  88.7259 0003279   5.9624  93.0521 15.73173998  7228,6727.969,91.535,352.04,347.62800000000016,0.0
51116.0,STARLINK-3243,PAYLOAD,2022-02-25 22:00:00,15.73140925,0.0003076,53.2158,87.0744,5.8644,182.0542,0.00056492,0.00079225,0.0,0 STARLINK-3243,1 51116U 22005N   22056.91667824  .00079225  00000-0  56492-3 0  9995,2 51116  53.2158  87.0744 0003076   5.8644 182.0542 15.73140925  3690,6728.064,91.537,351.99800000000016,347.8590000000001,0.0
51116.0,STARLINK-3243,PAYLOAD,2022-02-26 06:00:00,15.73213594,0.0003212,53.2159,85.426,8.6481,268.1667,7.9022e-05,0.0001049,0.0,0 STARLINK-3243,1 51116U 22005N   22057.25001157  .00010490  00000-0  79022-4 0  9998,2 51116  53.2159  85.4260 0003212   8.6481 268.1667 15.73213594  7330,6727.856,91.532,351.88199999999995,347.56,0.0
51116.0,STARLINK-3243,PAYLOAD,2022-02-26 14:00:01,15.73236667,0.00034,53.2152,83.7774,6.6963,359.0487,-0.00026151,-0.00037233,0.0,0 STARLINK-3243,1 51116U 22005N   22057.58334491 -.00037233  00000-0 -26151-3 0  9994,2 51116  53.2152  83.7774 0003400   6.6963 359.0487 15.73236667  3709,6727.791,91.531,351.9430000000001,347.36800000000005,0.0
